CCSDS_OMM_VERS = 2.0
CREATION_DATE  = 
ORIGINATOR     = 

OBJECT_NAME    = SL-16 R/B
OBJECT_ID      = 1998-043G
CENTER_NAME    = EARTH
REF_FRAME      = TEME
TIME_SYSTEM    = UTC
MEAN_ELEMENT_THEORY = SGP/SGP4

EPOCH          = 2026-02-17T17:38:24.696384
MEAN_MOTION    = 14.26044834
ECCENTRICITY   = .00109483
INCLINATION    = 98.8221
RA_OF_ASC_NODE = 1.9612
ARG_OF_PERICENTER = 73.8652
MEAN_ANOMALY   = 286.3732

EPHEMERIS_TYPE = 0
CLASSIFICATION_TYPE = U
NORAD_CAT_ID   = 25400
ELEMENT_SET_NO = 999
REV_AT_EPOCH   = 43614
BSTAR          = .42454362E-4
MEAN_MOTION_DOT = .56E-6
MEAN_MOTION_DDOT = 0

CCSDS_OMM_VERS = 2.0
CREATION_DATE  = 
ORIGINATOR     = 

OBJECT_NAME    = SL-16 R/B
OBJECT_ID      = 1998-045B
CENTER_NAME    = EARTH
REF_FRAME      = TEME
TIME_SYSTEM    = UTC
MEAN_ELEMENT_THEORY = SGP/SGP4

EPOCH          = 2026-02-17T17:24:24.723360
MEAN_MOTION    = 14.16189616
ECCENTRICITY   = .00057677
INCLINATION    = 71.0091
RA_OF_ASC_NODE = 223.5570
ARG_OF_PERICENTER = 43.4635
MEAN_ANOMALY   = 316.6942

EPHEMERIS_TYPE = 0
CLASSIFICATION_TYPE = U
NORAD_CAT_ID   = 25407
ELEMENT_SET_NO = 999
REV_AT_EPOCH   = 42427
BSTAR          = .15233585E-3
MEAN_MOTION_DOT = .254E-5
MEAN_MOTION_DDOT = 0

CCSDS_OMM_VERS = 2.0
CREATION_DATE  = 
ORIGINATOR     = 

OBJECT_NAME    = ISS (ZARYA)
OBJECT_ID      = 1998-067A
CENTER_NAME    = EARTH
REF_FRAME      = TEME
TIME_SYSTEM    = UTC
MEAN_ELEMENT_THEORY = SGP/SGP4

EPOCH          = 2026-02-17T19:52:32.520288
MEAN_MOTION    = 15.48671179
ECCENTRICITY   = .00109766
INCLINATION    = 51.6322
RA_OF_ASC_NODE = 170.5300
ARG_OF_PERICENTER = 108.9064
MEAN_ANOMALY   = 251.3115

EPHEMERIS_TYPE = 0
CLASSIFICATION_TYPE = U
NORAD_CAT_ID   = 25544
ELEMENT_SET_NO = 999
REV_AT_EPOCH   = 55325
BSTAR          = .18560473E-3
MEAN_MOTION_DOT = .9688E-4
MEAN_MOTION_DDOT = 0

CCSDS_OMM_VERS = 2.0
CREATION_DATE  = 
ORIGINATOR     = 

OBJECT_NAME    = CZ-4B R/B
OBJECT_ID      = 1999-025C
CENTER_NAME    = EARTH
REF_FRAME      = TEME
TIME_SYSTEM    = UTC
MEAN_ELEMENT_THEORY = SGP/SGP4

EPOCH          = 2026-02-17T17:01:43.088736
MEAN_MOTION    = 14.18261226
ECCENTRICITY   = .00378079
INCLINATION    = 98.6668
RA_OF_ASC_NODE = 93.4604
ARG_OF_PERICENTER = 43.7946
MEAN_ANOMALY   = 64.8529

EPHEMERIS_TYPE = 0
CLASSIFICATION_TYPE = U
NORAD_CAT_ID   = 25732
ELEMENT_SET_NO = 999
REV_AT_EPOCH   = 38533
BSTAR          = .40650131E-4
MEAN_MOTION_DOT = .41E-6
MEAN_MOTION_DDOT = 0

CCSDS_OMM_VERS = 2.0
CREATION_DATE  = 
ORIGINATOR     = 

OBJECT_NAME    = OKEAN-O
OBJECT_ID      = 1999-039A
CENTER_NAME    = EARTH
REF_FRAME      = TEME
TIME_SYSTEM    = UTC
MEAN_ELEMENT_THEORY = SGP/SGP4

EPOCH          = 2026-02-17T17:04:49.882080
MEAN_MOTION    = 14.80301664
ECCENTRICITY   = .00017833
INCLINATION    = 97.9488
RA_OF_ASC_NODE = 108.8020
ARG_OF_PERICENTER = 80.1696
MEAN_ANOMALY   = 279.9717

EPHEMERIS_TYPE = 0
CLASSIFICATION_TYPE = U
NORAD_CAT_ID   = 25860
ELEMENT_SET_NO = 999
REV_AT_EPOCH   = 43143
BSTAR          = .94704402E-4
MEAN_MOTION_DOT = .669E-5
MEAN_MOTION_DDOT = 0

CCSDS_OMM_VERS = 2.0
CREATION_DATE  = 
ORIGINATOR     = 

OBJECT_NAME    = SL-16 R/B
OBJECT_ID      = 1999-039B
CENTER_NAME    = EARTH
REF_FRAME      = TEME
TIME_SYSTEM    = UTC
MEAN_ELEMENT_THEORY = SGP/SGP4

EPOCH          = 2026-02-17T17:03:00.126432
MEAN_MOTION    = 14.81702355
ECCENTRICITY   = .0013946
INCLINATION    = 98.0011
RA_OF_ASC_NODE = 107.8324
ARG_OF_PERICENTER = 326.9364
MEAN_ANOMALY   = 33.0975

EPHEMERIS_TYPE = 0
CLASSIFICATION_TYPE = U
NORAD_CAT_ID   = 25861
ELEMENT_SET_NO = 999
REV_AT_EPOCH   = 43390
BSTAR          = .771676E-4
MEAN_MOTION_DOT = .554E-5
MEAN_MOTION_DDOT = 0

CCSDS_OMM_VERS = 2.0
CREATION_DATE  = 
ORIGINATOR     = 

OBJECT_NAME    = DELTA 2 R/B
OBJECT_ID      = 1999-041E
CENTER_NAME    = EARTH
REF_FRAME      = TEME
TIME_SYSTEM    = UTC
MEAN_ELEMENT_THEORY = SGP/SGP4

EPOCH          = 2026-02-17T23:21:55.780128
MEAN_MOTION    = 14.11763091
ECCENTRICITY   = .05022277
INCLINATION    = 51.7660
RA_OF_ASC_NODE = 20.0168
ARG_OF_PERICENTER = 290.2011
MEAN_ANOMALY   = 64.5597

EPHEMERIS_TYPE = 0
CLASSIFICATION_TYPE = U
NORAD_CAT_ID   = 25876
ELEMENT_SET_NO = 999
REV_AT_EPOCH   = 36024
BSTAR          = .31892469E-3
MEAN_MOTION_DOT = .1749E-4
MEAN_MOTION_DDOT = 0

CCSDS_OMM_VERS = 2.0
CREATION_DATE  = 
ORIGINATOR     = 

OBJECT_NAME    = HELIOS 1B
OBJECT_ID      = 1999-064A
CENTER_NAME    = EARTH
REF_FRAME      = TEME
TIME_SYSTEM    = UTC
MEAN_ELEMENT_THEORY = SGP/SGP4

EPOCH          = 2026-02-17T17:41:47.099616
MEAN_MOTION    = 14.87611837
ECCENTRICITY   = .00023303
INCLINATION    = 98.1719
RA_OF_ASC_NODE = 310.3924
ARG_OF_PERICENTER = 101.2905
MEAN_ANOMALY   = 258.8572

EPHEMERIS_TYPE = 0
CLASSIFICATION_TYPE = U
NORAD_CAT_ID   = 25977
ELEMENT_SET_NO = 999
REV_AT_EPOCH   = 68229
BSTAR          = .20206025E-3
MEAN_MOTION_DOT = .1778E-4
MEAN_MOTION_DDOT = 0

CCSDS_OMM_VERS = 2.0
CREATION_DATE  = 
ORIGINATOR     = 

OBJECT_NAME    = TERRA
OBJECT_ID      = 1999-068A
CENTER_NAME    = EARTH
REF_FRAME      = TEME
TIME_SYSTEM    = UTC
MEAN_ELEMENT_THEORY = SGP/SGP4

EPOCH          = 2026-02-17T22:06:07.696224
MEAN_MOTION    = 14.60992395
ECCENTRICITY   = .00012935
INCLINATION    = 97.9636
RA_OF_ASC_NODE = 103.1066
ARG_OF_PERICENTER = 212.1624
MEAN_ANOMALY   = 200.7725

EPHEMERIS_TYPE = 0
CLASSIFICATION_TYPE = U
NORAD_CAT_ID   = 25994
ELEMENT_SET_NO = 999
REV_AT_EPOCH   = 39219
BSTAR          = .9665757E-4
MEAN_MOTION_DOT = .43E-5
MEAN_MOTION_DDOT = 0

CCSDS_OMM_VERS = 2.0
CREATION_DATE  = 
ORIGINATOR     = 

OBJECT_NAME    = SL-16 R/B
OBJECT_ID      = 2000-006B
CENTER_NAME    = EARTH
REF_FRAME      = TEME
TIME_SYSTEM    = UTC
MEAN_ELEMENT_THEORY = SGP/SGP4

EPOCH          = 2026-02-17T15:57:21.910752
MEAN_MOTION    = 14.15818415
ECCENTRICITY   = .00179763
INCLINATION    = 71.0022
RA_OF_ASC_NODE = 139.9429
ARG_OF_PERICENTER = 218.2763
MEAN_ANOMALY   = 141.7085

EPHEMERIS_TYPE = 0
CLASSIFICATION_TYPE = U
NORAD_CAT_ID   = 26070
ELEMENT_SET_NO = 999
REV_AT_EPOCH   = 34572
BSTAR          = -.38570879E-4
MEAN_MOTION_DOT = -.124E-5
MEAN_MOTION_DDOT = 0

CCSDS_OMM_VERS = 2.0
CREATION_DATE  = 
ORIGINATOR     = 

OBJECT_NAME    = TITAN 4B R/B
OBJECT_ID      = 2000-047B
CENTER_NAME    = EARTH
REF_FRAME      = TEME
TIME_SYSTEM    = UTC
MEAN_ELEMENT_THEORY = SGP/SGP4

EPOCH          = 2026-02-17T21:13:04.095552
MEAN_MOTION    = 15.09382421
ECCENTRICITY   = .00372847
INCLINATION    = 67.9880
RA_OF_ASC_NODE = 96.1969
ARG_OF_PERICENTER = 59.4910
MEAN_ANOMALY   = 300.9911

EPHEMERIS_TYPE = 0
CLASSIFICATION_TYPE = U
NORAD_CAT_ID   = 26474
ELEMENT_SET_NO = 999
REV_AT_EPOCH   = 38992
BSTAR          = .18671119E-3
MEAN_MOTION_DOT = .2901E-4
MEAN_MOTION_DDOT = 0

CCSDS_OMM_VERS = 2.0
CREATION_DATE  = 
ORIGINATOR     = 

OBJECT_NAME    = ENVISAT
OBJECT_ID      = 2002-009A
CENTER_NAME    = EARTH
REF_FRAME      = TEME
TIME_SYSTEM    = UTC
MEAN_ELEMENT_THEORY = SGP/SGP4

EPOCH          = 2026-02-17T20:35:42.737856
MEAN_MOTION    = 14.39029113
ECCENTRICITY   = .00013665
INCLINATION    = 98.3696
RA_OF_ASC_NODE = 2.9320
ARG_OF_PERICENTER = 87.0149
MEAN_ANOMALY   = 298.0355

EPHEMERIS_TYPE = 0
CLASSIFICATION_TYPE = U
NORAD_CAT_ID   = 27386
ELEMENT_SET_NO = 999
REV_AT_EPOCH   = 25632
BSTAR          = .47555184E-4
MEAN_MOTION_DOT = .104E-5
MEAN_MOTION_DDOT = 0

