SL-16 R/B               
1 25400U 98043G   26048.73500806  .00000056  00000+0  42454-4 0  9997
2 25400  98.8221   1.9612 0010948  73.8652 286.3732 14.26044834436140
SL-16 R/B               
1 25407U 98045B   26048.72528615  .00000254  00000+0  15234-3 0  9998
2 25407  71.0091 223.5570 0005767  43.4635 316.6942 14.16189616424275
ISS (ZARYA)             
1 25544U 98067A   26048.82815417  .00009688  00000+0  18560-3 0  9999
2 25544  51.6322 170.5300 0010976 108.9064 251.3115 15.48671179553255
CZ-4B R/B               
1 25732U 99025C   26048.70952649  .00000041  00000+0  40650-4 0  9999
2 25732  98.6668  93.4604 0037807  43.7946  64.8529 14.18261226385337
OKEAN-O                 
1 25860U 99039A   26048.71168845  .00000669  00000+0  94704-4 0  9999
2 25860  97.9488 108.8020 0001783  80.1696 279.9717 14.80301664431436
SL-16 R/B               
1 25861U 99039B   26048.71041813  .00000554  00000+0  77168-4 0  9993
2 25861  98.0011 107.8324 0013946 326.9364  33.0975 14.81702355433906
DELTA 2 R/B             
1 25876U 99041E   26048.97356227  .00001749  00000+0  31892-3 0  9998
2 25876  51.7660  20.0168 0502227 290.2011  64.5597 14.11763091360249
HELIOS 1B               
1 25977U 99064A   26048.73735069  .00001778  00000+0  20206-3 0  9993
2 25977  98.1719 310.3924 0002330 101.2905 258.8572 14.87611837682295
TERRA                   
1 25994U 99068A   26048.92092241  .00000430  00000+0  96658-4 0  9994
2 25994  97.9636 103.1066 0001293 212.1624 200.7725 14.60992395392196
SL-16 R/B               
1 26070U 00006B   26048.66483693 -.00000124  00000+0 -38571-4 0  9992
2 26070  71.0022 139.9429 0017976 218.2763 141.7085 14.15818415345720
TITAN 4B R/B            
1 26474U 00047B   26048.88407518  .00002901  00000+0  18671-3 0  9992
2 26474  67.9880  96.1969 0037284  59.4910 300.9911 15.09382421389924
ENVISAT                 
1 27386U 02009A   26048.85813354  .00000104  00000+0  47555-4 0  9998
2 27386  98.3696   2.9320 0001366  87.0149 298.0355 14.39029113256323
